$$SOE
2460154.500000000, A.D. 2023-Jul-29 00:00:00.0000, -2.188584479246447E+08, 2.542472440604631E+08, -2.641343305206175E+07,
2460161.500000000, A.D. 2023-Aug-05 00:00:00.0000, -2.287017973910210E+08, 2.467897821324776E+08, -2.355234186689025E+07,
2460168.500000000, A.D. 2023-Aug-12 00:00:00.0000, -2.382558907421241E+08, 2.390201159894338E+08, -2.066145119068541E+07,
2460175.500000000, A.D. 2023-Aug-19 00:00:00.0000, -2.475108528914453E+08, 2.309502850161438E+08, -1.774460903871067E+07,
2460182.500000000, A.D. 2023-Aug-26 00:00:00.0000, -2.564574598821453E+08, 2.225926533214669E+08, -1.480564954400204E+07,
2460189.500000000, A.D. 2023-Sep-02 00:00:00.0000, -2.650871453731096E+08, 2.139598691637236E+08, -1.184838342615405E+07,
2460196.500000000, A.D. 2023-Sep-09 00:00:00.0000, -2.733920040809997E+08, 2.050648246721889E+08, -8.876588947686732E+06,
2460203.500000000, A.D. 2023-Sep-16 00:00:00.0000, -2.813647921399037E+08, 1.959206160488088E+08, -5.894003413339451E+06,
2460210.500000000, A.D. 2023-Sep-23 00:00:00.0000, -2.889989241110820E+08, 1.865405047580202E+08, -2.904315255259804E+06,
2460217.500000000, A.D. 2023-Sep-30 00:00:00.0000, -2.962884671479504E+08, 1.769378810938114E+08, 8.884340284889936E+04,
2460224.500000000, A.D. 2023-Oct-07 00:00:00.0000, -3.032281348518724E+08, 1.671262297582514E+08, 3.081903858790979E+06,
2460231.500000000, A.D. 2023-Oct-14 00:00:00.0000, -3.098132799693602E+08, 1.571190942965060E+08, 6.071367247096851E+06,
2460238.500000000, A.D. 2023-Oct-21 00:00:00.0000, -3.160398828893768E+08, 1.469300421216972E+08, 9.053810089373142E+06,
2460245.500000000, A.D. 2023-Oct-28 00:00:00.0000, -3.219045375602401E+08, 1.365726324902064E+08, 1.202588929805800E+07,
2460252.500000000, A.D. 2023-Nov-04 00:00:00.0000, -3.274044362816783E+08, 1.260603867413361E+08, 1.498434669210228E+07,
2460259.500000000, A.D. 2023-Nov-11 00:00:00.0000, -3.325373533951811E+08, 1.154067602683388E+08, 1.792601297112414E+07,
2460266.500000000, A.D. 2023-Nov-18 00:00:00.0000, -3.373016278471148E+08, 1.046251162007107E+08, 2.084781113882238E+07,
2460273.500000000, A.D. 2023-Nov-25 00:00:00.0000, -3.416961447411833E+08, 9.372870084440354E+07, 2.374675939029283E+07,
2460280.500000000, A.D. 2023-Dec-02 00:00:00.0000, -3.457203160356185E+08, 8.273062087608023E+07, 2.661997348206554E+07,
2460287.500000000, A.D. 2023-Dec-09 00:00:00.0000, -3.493740604825559E+08, 7.164382222536036E+07, 2.946466859764224E+07,
2460294.500000000, A.D. 2023-Dec-16 00:00:00.0000, -3.526577826861371E+08, 6.048107063773812E+07, 3.227816070969820E+07,
2460301.500000000, A.D. 2023-Dec-23 00:00:00.0000, -3.555723510808325E+08, 4.925493457339263E+07, 3.505786749050109E+07,
2460308.500000000, A.D. 2023-Dec-30 00:00:00.0000, -3.581190763060397E+08, 3.797777144506289E+07, 3.780130900641359E+07,
2460315.500000000, A.D. 2024-Jan-06 00:00:00.0000, -3.602996918774077E+08, 2.666171477448628E+07, 4.050610819322497E+07,
2460322.500000000, A.D. 2024-Jan-13 00:00:00.0000, -3.621163341051749E+08, 1.531866039322447E+07, 4.316999070164313E+07,
2460329.500000000, A.D. 2024-Jan-20 00:00:00.0000, -3.635715201470285E+08, 3.960254701369584E+06, 4.579078428136335E+07,
2460336.500000000, A.D. 2024-Jan-27 00:00:00.0000, -3.646681263249605E+08, -7.402114440203842E+06, 4.836641797150487E+07,
2460343.500000000, A.D. 2024-Feb-03 00:00:00.0000, -3.654093672286540E+08, -1.875732521051421E+07, 5.089492108784667E+07,
2460350.500000000, A.D. 2024-Feb-10 00:00:00.0000, -3.657987754092745E+08, -3.009452808987233E+07, 5.337442198583023E+07,
2460357.500000000, A.D. 2024-Feb-17 00:00:00.0000, -3.658401815908124E+08, -4.140315095272867E+07, 5.580314661384127E+07,
2460364.500000000, A.D. 2024-Feb-24 00:00:00.0000, -3.655376954173723E+08, -5.267290305871145E+07, 5.817941687959634E+07,
2460371.500000000, A.D. 2024-Mar-02 00:00:00.0000, -3.648956867529250E+08, -6.389377805690603E+07, 6.050164884789546E+07,
2460378.500000000, A.D. 2024-Mar-09 00:00:00.0000, -3.639187674330135E+08, -7.505605614785275E+07, 6.276835077428412E+07,
2460385.500000000, A.D. 2024-Mar-16 00:00:00.0000, -3.626117731038707E+08, -8.615030528548315E+07, 6.497812097555864E+07,
2460392.500000000, A.D. 2024-Mar-23 00:00:00.0000, -3.609797452754070E+08, -9.716738038676932E+07, 6.712964565662338E+07,
2460399.500000000, A.D. 2024-Mar-30 00:00:00.0000, -3.590279158449913E+08, -1.080984206507384E+08, 6.922169691461800E+07,
2460406.500000000, A.D. 2024-Apr-06 00:00:00.0000, -3.567616938478211E+08, -1.189348484277111E+08, 7.125313063807391E+07,
2460413.500000000, A.D. 2024-Apr-13 00:00:00.0000, -3.541866508903068E+08, -1.296683688711305E+08, 7.322288405929741E+07,
2460420.500000000, A.D. 2024-Apr-20 00:00:00.0000, -3.513085062175843E+08, -1.402909677592762E+08, 7.512997327940468E+07,
2460427.500000000, A.D. 2024-Apr-27 00:00:00.0000, -3.481331129250617E+08, -1.507949081113839E+08, 7.697349087074009E+07,
2460434.500000000, A.D. 2024-May-04 00:00:00.0000, -3.446664452186836E+08, -1.611727263641135E+08, 7.875260350261588E+07,
2460441.500000000, A.D. 2024-May-11 00:00:00.0000, -3.409145864784389E+08, -1.714172282683986E+08, 8.046654957210815E+07,
2460448.500000000, A.D. 2024-May-18 00:00:00.0000, -3.368837180335094E+08, -1.815214845373699E+08, 8.211463684533800E+07,
2460455.500000000, A.D. 2024-May-25 00:00:00.0000, -3.325801086111323E+08, -1.914788262999776E+08, 8.369624011606558E+07,
2460462.500000000, A.D. 2024-Jun-01 00:00:00.0000, -3.280101043831998E+08, -2.012828404615657E+08, 8.521079887960742E+07,
2460469.500000000, A.D. 2024-Jun-08 00:00:00.0000, -3.231801193459817E+08, -2.109273650348724E+08, 8.665781500454582E+07,
2460476.500000000, A.D. 2024-Jun-15 00:00:00.0000, -3.180966256134769E+08, -2.204064839336508E+08, 8.803685041594483E+07,
2460483.500000000, A.D. 2024-Jun-22 00:00:00.0000, -3.127661446078570E+08, -2.297145200879537E+08, 8.934752498294526E+07,
2460490.500000000, A.D. 2024-Jun-29 00:00:00.0000, -3.071952412457922E+08, -2.388460287341914E+08, 9.058951466033331E+07,
2460497.500000000, A.D. 2024-Jul-06 00:00:00.0000, -3.013905184541129E+08, -2.477957933823373E+08, 9.176254944353586E+07,
2460504.500000000, A.D. 2024-Jul-13 00:00:00.0000, -2.953586100451195E+08, -2.565588216637399E+08, 9.286641119296545E+07,
2460511.500000000, A.D. 2024-Jul-20 00:00:00.0000, -2.891061739149666E+08, -2.651303399337839E+08, 9.390093160616222E+07,
2460518.500000000, A.D. 2024-Jul-27 00:00:00.0000, -2.826398861973602E+08, -2.735057876096374E+08, 9.486599032058619E+07,
2460525.500000000, A.D. 2024-Aug-03 00:00:00.0000, -2.759664360761682E+08, -2.816808116383053E+08, 9.576151309219193E+07,
2460532.500000000, A.D. 2024-Aug-10 00:00:00.0000, -2.690925210693280E+08, -2.896512611186727E+08, 9.658747003540803E+07,
2460539.500000000, A.D. 2024-Aug-17 00:00:00.0000, -2.620248427163852E+08, -2.974131820726407E+08, 9.734387392327519E+07,
2460546.500000000, A.D. 2024-Aug-24 00:00:00.0000, -2.547701026221933E+08, -3.049628124015817E+08, 9.803077854423803E+07,
2460553.500000000, A.D. 2024-Aug-31 00:00:00.0000, -2.473349987218804E+08, -3.122965771009443E+08, 9.864827710011809E+07,
2460560.500000000, A.D. 2024-Sep-07 00:00:00.0000, -2.397262213824559E+08, -3.194110836153886E+08, 9.919650062134299E+07,
2460567.500000000, A.D. 2024-Sep-14 00:00:00.0000, -2.319504492362151E+08, -3.263031163449283E+08, 9.967561647112611E+07,
2460574.500000000, A.D. 2024-Sep-21 00:00:00.0000, -2.240143467537232E+08, -3.329696298944148E+08, 1.000858271554211E+08,
2460581.500000000, A.D. 2024-Sep-28 00:00:00.0000, -2.159245640221054E+08, -3.394077443005292E+08, 1.004273692168145E+08,
2460588.500000000, A.D. 2024-Oct-05 00:00:00.0000, -2.076877350397478E+08, -3.456147422439408E+08, 1.007005118751812E+08,
2460595.500000000, A.D. 2024-Oct-12 00:00:00.0000, -1.993104748724996E+08, -3.515880652752623E+08, 1.009055556924855E+08,
2460602.500000000, A.D. 2024-Oct-19 00:00:00.0000, -1.907993774085981E+08, -3.573253093311858E+08, 1.010428314006664E+08,
2460609.500000000, A.D. 2024-Oct-26 00:00:00.0000, -1.821610137313125E+08, -3.628242203450572E+08, 1.011126988295377E+08,
2460616.500000000, A.D. 2024-Nov-02 00:00:00.0000, -1.734019308381035E+08, -3.680826901016941E+08, 1.011155458975322E+08,
2460623.500000000, A.D. 2024-Nov-09 00:00:00.0000, -1.645286505956013E+08, -3.730987523169438E+08, 1.010517876564579E+08,
2460630.500000000, A.D. 2024-Nov-16 00:00:00.0000, -1.555476688909564E+08, -3.778705789428998E+08, 1.009218653864904E+08,
2460637.500000000, A.D. 2024-Nov-23 00:00:00.0000, -1.464654549199457E+08, -3.823964767494406E+08, 1.007262457317289E+08,
2460644.500000000, A.D. 2024-Nov-30 00:00:00.0000, -1.372884503914936E+08, -3.866748842249451E+08, 1.004654198523751E+08,
2460651.500000000, A.D. 2024-Dec-07 00:00:00.0000, -1.280230682177316E+08, -3.907043683753510E+08, 1.001399025880399E+08,
2460658.500000000, A.D. 2024-Dec-14 00:00:00.0000, -1.186756913673417E+08, -3.944836201967715E+08, 9.975023179382178E+07,
2460665.500000000, A.D. 2024-Dec-21 00:00:00.0000, -1.092526741898814E+08, -3.980114500608045E+08, 9.929696795854974E+07,
2460672.500000000, A.D. 2024-Dec-28 00:00:00.0000, -9.976034422767653E+07, -4.012867859789730E+08, 9.878069368017296E+07,
2460679.500000000, A.D. 2025-Jan-04 00:00:00.0000, -9.020500190844706E+07, -4.043086723706699E+08, 9.820201295359656E+07,
2460686.500000000, A.D. 2025-Jan-11 00:00:00.0000, -8.059291993158570E+07, -4.070762676745685E+08, 9.756155057309383E+07,
2460693.500000000, A.D. 2025-Jan-18 00:00:00.0000, -7.093034325705543E+07, -4.095888417209604E+08, 9.685995165733299E+07,
2460700.500000000, A.D. 2025-Jan-25 00:00:00.0000, -6.122348944554231E+07, -4.118457733377399E+08, 9.609788123466291E+07,
2460707.500000000, A.D. 2025-Feb-01 00:00:00.0000, -5.147854915254506E+07, -4.138465482181925E+08, 9.527602386743914E+07,
2460714.500000000, A.D. 2025-Feb-08 00:00:00.0000, -4.170168671013328E+07, -4.155907570292053E+08, 9.439508331033732E+07,
2460721.500000000, A.D. 2025-Feb-15 00:00:00.0000, -3.189904075998018E+07, -4.170780937788070E+08, 9.345578219743003E+07,
$$EOE